{"features":[{"geometry":{"coordinates":[[-6.932238576747079,40.09922096711811],[-6.931668353864015,40.095931779222845],[-6.92109935822448,40.087504571993286],[-6.91879567084751,40.08274449199305],[-6.917250928853157,40.066139042941664],[-6.909390721484866,40.067204538600585],[-6.907588400355188,40.06321040415969],[-6.903653487461151,40.061455171950584],[-6.892289102937624,40.060258370118184],[-6.893268023229245,40.056609824299656],[-6.897170306906021,40.05208718906609],[-6.891306996484787,40.049741367284604],[-6.880929699421771,40.04167510210458],[-6.882536113258881,40.03340780268172],[-6.874262766312472,40.02377110210639],[-6.877247338121298,40.01816782959857],[-6.866658839223408,40.01523918694393],[-6.863879811102003,40.01251673987352],[-6.864523826346293,40.01047191052016],[-6.872929574525813,40.0081165383977],[-6.874245599115103,40.006231599493596]],"type":"LineString"},"properties":{"BST":"Definido","COMP_m":15413.98,"ENT_DIREIT":"Penha Garcia","ENT_ESQUER":"Espanha","ICC":"PT#ES","ID_TROCO":"5394","MOL":"LIMITE EM TERRA","fid":5229},"type":"Feature"}],"type":"FeatureCollection"}
