{
  "features": [
    {
      "geometry": {
        "coordinates": [
          [
            [
              40.324920654296875,
              11.793140411376953
            ],
            [
              40.31525421142578,
              11.535990715026855
            ]
          ],
          [
            [
              40.31525421142578,
              11.535990715026855
            ],
            [
              40.51822280883789,
              11.085978507995605
            ]
          ],
          [
            [
              40.51822280883789,
              11.085978507995605
            ],
            [
              40.54597854614258,
              9.800228118896484
            ]
          ],
          [
            [
              40.6103401184082,
              9.543078422546387
            ],
            [
              40.81025314331055,
              8.964489936828613
            ]
          ],
          [
            [
              40.81025314331055,
              8.964489936828613
            ],
            [
              41.23794174194336,
              8.643052101135254
            ]
          ],
          [
            [
              41.23794174194336,
              8.643052101135254
            ],
            [
              41.2337532043457,
              8.514476776123047
            ]
          ],
          [
            [
              41.2337532043457,
              8.514476776123047
            ],
            [
              41.95976638793945,
              8.385902404785156
            ]
          ],
          [
            [
              41.95976638793945,
              8.385902404785156
            ],
            [
              42.11217498779297,
              8.578764915466309
            ]
          ],
          [
            [
              42.11217498779297,
              8.578764915466309
            ],
            [
              42.25823211669922,
              8.578764915466309
            ]
          ]
        ],
        "type": "MultiLineString"
      },
      "properties": {
        "derivation": "exact shared polygon-boundary intersection; no candidate or modern-control geometry used",
        "feature_id": "replacement-cliopatria-014-ethiopian-empire-adal-sultanate",
        "left_source_polity": "Ethiopian Empire",
        "native_resolution_degrees": 0.07,
        "proposed_error_budget_km": 20.0,
        "region_id": "014",
        "review_status": "pending_independent_review",
        "right_source_polity": "Adal Sultanate",
        "source_id": "cliopatria-v0.2.0-1444",
        "source_intervals": [
          [
            1415,
            1501
          ],
          [
            1415,
            1528
          ]
        ],
        "source_native_crs": "EPSG:4326",
        "start_date": "1444-11-11"
      },
      "type": "Feature"
    },
    {
      "geometry": {
        "coordinates": [
          [
            [
              -2.121232748031616,
              35.065311431884766
            ],
            [
              -2.114432096481323,
              34.93662643432617
            ]
          ],
          [
            [
              -2.114432096481323,
              34.93662643432617
            ],
            [
              -1.715473294258118,
              34.679283142089844
            ]
          ],
          [
            [
              -1.715473294258118,
              34.679283142089844
            ],
            [
              -1.578816890716553,
              33.45735549926758
            ]
          ],
          [
            [
              4.562509536743164,
              36.3527946472168
            ],
            [
              4.560747623443604,
              36.417205810546875
            ]
          ],
          [
            [
              4.560747623443604,
              36.417205810546875
            ],
            [
              4.638402462005615,
              36.417205810546875
            ]
          ]
        ],
        "type": "MultiLineString"
      },
      "properties": {
        "derivation": "exact shared polygon-boundary intersection; no candidate or modern-control geometry used",
        "feature_id": "replacement-cliopatria-015-marinid-sultanate-zayyanid-dynasty",
        "left_source_polity": "Marinid Sultanate",
        "native_resolution_degrees": 0.07,
        "proposed_error_budget_km": 20.0,
        "region_id": "015",
        "review_status": "pending_independent_review",
        "right_source_polity": "Zayyanid dynasty",
        "source_id": "cliopatria-v0.2.0-1444",
        "source_intervals": [
          [
            1415,
            1462
          ],
          [
            1363,
            1506
          ]
        ],
        "source_native_crs": "EPSG:4326",
        "start_date": "1444-11-11"
      },
      "type": "Feature"
    },
    {
      "geometry": {
        "coordinates": [
          [
            [
              90.6501693725586,
              40.873565673828125
            ],
            [
              91.47752380371094,
              42.041324615478516
            ]
          ],
          [
            [
              91.47752380371094,
              42.041324615478516
            ],
            [
              91.92325592041016,
              42.496177673339844
            ]
          ],
          [
            [
              91.92325592041016,
              42.496177673339844
            ],
            [
              92.33328247070312,
              42.691246032714844
            ]
          ],
          [
            [
              92.33328247070312,
              42.691246032714844
            ],
            [
              94.50291442871094,
              42.36617660522461
            ]
          ],
          [
            [
              94.50291442871094,
              42.36617660522461
            ],
            [
              96.24198913574219,
              42.82133865356445
            ]
          ],
          [
            [
              96.24198913574219,
              42.82133865356445
            ],
            [
              96.48251342773438,
              42.82133865356445
            ]
          ],
          [
            [
              96.48251342773438,
              42.82133865356445
            ],
            [
              96.57940673828125,
              42.691246032714844
            ]
          ],
          [
            [
              96.57940673828125,
              42.691246032714844
            ],
            [
              97.7331314086914,
              42.75628662109375
            ]
          ],
          [
            [
              97.7331314086914,
              42.75628662109375
            ],
            [
              97.7010269165039,
              42.691246032714844
            ]
          ],
          [
            [
              97.7010269165039,
              42.691246032714844
            ],
            [
              98.18172454833984,
              42.691246032714844
            ]
          ],
          [
            [
              98.18172454833984,
              42.691246032714844
            ],
            [
              98.14952087402344,
              42.62621307373047
            ]
          ],
          [
            [
              98.14952087402344,
              42.62621307373047
            ],
            [
              98.95038604736328,
              42.62621307373047
            ]
          ],
          [
            [
              98.95038604736328,
              42.62621307373047
            ],
            [
              98.91797637939453,
              42.56119155883789
            ]
          ],
          [
            [
              98.91797637939453,
              42.56119155883789
            ],
            [
              100.79236602783203,
              42.62621307373047
            ]
          ],
          [
            [
              100.79236602783203,
              42.62621307373047
            ],
            [
              100.75928497314453,
              42.56119155883789
            ]
          ],
          [
            [
              100.75928497314453,
              42.56119155883789
            ],
            [
              101.55985260009766,
              42.56119155883789
            ]
          ],
          [
            [
              101.55985260009766,
              42.56119155883789
            ],
            [
              101.52655792236328,
              42.496177673339844
            ]
          ],
          [
            [
              101.52655792236328,
              42.496177673339844
            ],
            [
              103.767333984375,
              42.496177673339844
            ]
          ],
          [
            [
              103.767333984375,
              42.496177673339844
            ],
            [
              107.59097290039062,
              42.75628662109375
            ]
          ],
          [
            [
              107.59097290039062,
              42.75628662109375
            ],
            [
              110.51307678222656,
              42.82133865356445
            ]
          ],
          [
            [
              110.51307678222656,
              42.82133865356445
            ],
            [
              111.46968841552734,
              42.95146560668945
            ]
          ],
          [
            [
              111.46968841552734,
              42.95146560668945
            ],
            [
              112.53473663330078,
              43.53750228881836
            ]
          ],
          [
            [
              112.53473663330078,
              43.53750228881836
            ],
            [
              114.30026245117188,
              43.92862319946289
            ]
          ],
          [
            [
              114.30026245117188,
              43.92862319946289
            ],
            [
              115.30732727050781,
              44.38538360595703
            ]
          ],
          [
            [
              115.30732727050781,
              44.38538360595703
            ],
            [
              116.44084930419922,
              44.5159797668457
            ]
          ],
          [
            [
              116.44084930419922,
              44.5159797668457
            ],
            [
              118.73088073730469,
              45.431331634521484
            ]
          ],
          [
            [
              118.73088073730469,
              45.431331634521484
            ],
            [
              121.91911315917969,
              45.693260192871094
            ]
          ],
          [
            [
              121.91911315917969,
              45.693260192871094
            ],
            [
              123.62057495117188,
              46.1520881652832
            ]
          ],
          [
            [
              123.62057495117188,
              46.1520881652832
            ],
            [
              124.19296264648438,
              46.1520881652832
            ]
          ]
        ],
        "type": "MultiLineString"
      },
      "properties": {
        "derivation": "exact shared polygon-boundary intersection; no candidate or modern-control geometry used",
        "feature_id": "replacement-cliopatria-030-ming-dynasty-four-oirats",
        "left_source_polity": "Ming Dynasty",
        "native_resolution_degrees": 0.07,
        "proposed_error_budget_km": 20.0,
        "region_id": "030",
        "review_status": "pending_independent_review",
        "right_source_polity": "Four Oirats",
        "source_id": "cliopatria-v0.2.0-1444",
        "source_intervals": [
          [
            1440,
            1449
          ],
          [
            1440,
            1449
          ]
        ],
        "source_native_crs": "EPSG:4326",
        "start_date": "1444-11-11"
      },
      "type": "Feature"
    },
    {
      "geometry": {
        "coordinates": [
          [
            [
              73.19306182861328,
              17.450464248657227
            ],
            [
              73.41439056396484,
              17.450464248657227
            ]
          ],
          [
            [
              73.41439056396484,
              17.450464248657227
            ],
            [
              73.54842376708984,
              17.321889877319336
            ]
          ],
          [
            [
              73.54842376708984,
              17.321889877319336
            ],
            [
              73.89762878417969,
              16.421857833862305
            ]
          ],
          [
            [
              73.89762878417969,
              16.421857833862305
            ],
            [
              74.380615234375,
              16.100418090820312
            ]
          ],
          [
            [
              74.380615234375,
              16.100418090820312
            ],
            [
              74.89598083496094,
              16.100418090820312
            ]
          ],
          [
            [
              74.89598083496094,
              16.100418090820312
            ],
            [
              75.35750579833984,
              16.293283462524414
            ]
          ],
          [
            [
              75.35750579833984,
              16.293283462524414
            ],
            [
              75.75933837890625,
              16.614723205566406
            ]
          ],
          [
            [
              75.75933837890625,
              16.614723205566406
            ],
            [
              76.45000457763672,
              16.87187385559082
            ]
          ],
          [
            [
              76.45000457763672,
              16.87187385559082
            ],
            [
              77.25381469726562,
              16.807586669921875
            ]
          ],
          [
            [
              77.25381469726562,
              16.807586669921875
            ],
            [
              77.5346450805664,
              16.67901039123535
            ]
          ]
        ],
        "type": "MultiLineString"
      },
      "properties": {
        "derivation": "exact shared polygon-boundary intersection; no candidate or modern-control geometry used",
        "feature_id": "replacement-cliopatria-034-vijayanagara-empire-bahmani-sultanate",
        "left_source_polity": "Vijayanagara Empire",
        "native_resolution_degrees": 0.07,
        "proposed_error_budget_km": 20.0,
        "region_id": "034",
        "review_status": "pending_independent_review",
        "right_source_polity": "Bahmani Sultanate",
        "source_id": "cliopatria-v0.2.0-1444",
        "source_intervals": [
          [
            1375,
            1449
          ],
          [
            1375,
            1449
          ]
        ],
        "source_native_crs": "EPSG:4326",
        "start_date": "1444-11-11"
      },
      "type": "Feature"
    },
    {
      "geometry": {
        "coordinates": [
          [
            [
              102.74337005615234,
              12.050291061401367
            ],
            [
              102.84342956542969,
              12.307440757751465
            ]
          ],
          [
            [
              102.84342956542969,
              12.307440757751465
            ],
            [
              102.4069595336914,
              13.014603614807129
            ]
          ],
          [
            [
              102.4069595336914,
              13.014603614807129
            ],
            [
              102.39213562011719,
              13.528904914855957
            ]
          ],
          [
            [
              102.39213562011719,
              13.528904914855957
            ],
            [
              102.70829010009766,
              13.721768379211426
            ]
          ],
          [
            [
              102.70829010009766,
              13.721768379211426
            ],
            [
              102.90162658691406,
              14.107494354248047
            ]
          ],
          [
            [
              102.90162658691406,
              14.107494354248047
            ],
            [
              103.2273178100586,
              14.364645004272461
            ]
          ],
          [
            [
              103.2273178100586,
              14.364645004272461
            ],
            [
              103.4476547241211,
              14.364645004272461
            ]
          ],
          [
            [
              103.4476547241211,
              14.364645004272461
            ],
            [
              103.61087036132812,
              14.493220329284668
            ]
          ]
        ],
        "type": "MultiLineString"
      },
      "properties": {
        "derivation": "exact shared polygon-boundary intersection; no candidate or modern-control geometry used",
        "feature_id": "replacement-cliopatria-035-khmer-empire-ayutthaya-kingdom",
        "left_source_polity": "Khmer Empire",
        "native_resolution_degrees": 0.07,
        "proposed_error_budget_km": 20.0,
        "region_id": "035",
        "review_status": "pending_independent_review",
        "right_source_polity": "Ayutthaya Kingdom",
        "source_id": "cliopatria-v0.2.0-1444",
        "source_intervals": [
          [
            1375,
            1474
          ],
          [
            1395,
            1449
          ]
        ],
        "source_native_crs": "EPSG:4326",
        "start_date": "1444-11-11"
      },
      "type": "Feature"
    },
    {
      "geometry": {
        "coordinates": [
          [
            [
              -6.254164218902588,
              41.45711898803711
            ],
            [
              -6.927728176116943,
              41.00318908691406
            ]
          ],
          [
            [
              -6.927728176116943,
              41.00318908691406
            ],
            [
              -6.868430137634277,
              40.355369567871094
            ]
          ],
          [
            [
              -6.868430137634277,
              40.355369567871094
            ],
            [
              -7.014894485473633,
              40.225894927978516
            ]
          ],
          [
            [
              -7.014894485473633,
              40.225894927978516
            ],
            [
              -7.00321626663208,
              40.0964469909668
            ]
          ],
          [
            [
              -7.00321626663208,
              40.0964469909668
            ],
            [
              -6.839452266693115,
              40.031734466552734
            ]
          ],
          [
            [
              -6.839452266693115,
              40.031734466552734
            ],
            [
              -6.895466804504395,
              39.77294921875
            ]
          ],
          [
            [
              -6.895466804504395,
              39.77294921875
            ],
            [
              -7.435848712921143,
              39.64360046386719
            ]
          ],
          [
            [
              -7.435848712921143,
              39.64360046386719
            ],
            [
              -7.418391227722168,
              39.449623107910156
            ]
          ],
          [
            [
              -7.418391227722168,
              39.449623107910156
            ],
            [
              -7.255166053771973,
              39.38497543334961
            ]
          ],
          [
            [
              -7.255166053771973,
              39.38497543334961
            ],
            [
              -6.985427379608154,
              38.997230529785156
            ]
          ],
          [
            [
              -6.985427379608154,
              38.997230529785156
            ],
            [
              -7.120340347290039,
              38.738853454589844
            ]
          ],
          [
            [
              -7.120340347290039,
              38.738853454589844
            ],
            [
              -7.271727085113525,
              38.67427444458008
            ]
          ],
          [
            [
              -7.271727085113525,
              38.67427444458008
            ],
            [
              -7.244168281555176,
              38.351463317871094
            ]
          ],
          [
            [
              -7.244168281555176,
              38.351463317871094
            ],
            [
              -6.998411178588867,
              38.22237777709961
            ]
          ],
          [
            [
              -6.998411178588867,
              38.22237777709961
            ],
            [
              -6.987714290618896,
              38.09331130981445
            ]
          ],
          [
            [
              -6.987714290618896,
              38.09331130981445
            ],
            [
              -7.14418888092041,
              38.09331130981445
            ]
          ],
          [
            [
              -7.14418888092041,
              38.09331130981445
            ],
            [
              -7.27909517288208,
              37.835243225097656
            ]
          ],
          [
            [
              -7.27909517288208,
              37.835243225097656
            ],
            [
              -7.502705097198486,
              37.706241607666016
            ]
          ],
          [
            [
              -7.502705097198486,
              37.706241607666016
            ],
            [
              -7.387404441833496,
              37.254878997802734
            ]
          ],
          [
            [
              -8.928141593933105,
              41.911441802978516
            ],
            [
              -8.469955444335938,
              42.10627746582031
            ]
          ],
          [
            [
              -8.469955444335938,
              42.10627746582031
            ],
            [
              -8.150541305541992,
              42.10627746582031
            ]
          ],
          [
            [
              -8.150541305541992,
              42.10627746582031
            ],
            [
              -8.137139320373535,
              41.97637939453125
            ]
          ],
          [
            [
              -8.137139320373535,
              41.97637939453125
            ],
            [
              -8.216935157775879,
              41.97637939453125
            ]
          ],
          [
            [
              -8.216935157775879,
              41.97637939453125
            ],
            [
              -8.11717414855957,
              41.781593322753906
            ]
          ],
          [
            [
              -8.11717414855957,
              41.781593322753906
            ],
            [
              -6.700808048248291,
              41.97637939453125
            ]
          ],
          [
            [
              -6.700808048248291,
              41.97637939453125
            ],
            [
              -6.351566314697266,
              41.65177917480469
            ]
          ],
          [
            [
              -6.351566314697266,
              41.65177917480469
            ],
            [
              -6.271912097930908,
              41.65177917480469
            ]
          ],
          [
            [
              -6.271912097930908,
              41.65177917480469
            ],
            [
              -6.254164218902588,
              41.45711898803711
            ]
          ]
        ],
        "type": "MultiLineString"
      },
      "properties": {
        "derivation": "exact shared polygon-boundary intersection; no candidate or modern-control geometry used",
        "feature_id": "replacement-cliopatria-039-kingdom-of-portugal-crown-of-castile",
        "left_source_polity": "Kingdom of Portugal",
        "native_resolution_degrees": 0.07,
        "proposed_error_budget_km": 20.0,
        "region_id": "039",
        "review_status": "pending_independent_review",
        "right_source_polity": "Crown of Castile",
        "source_id": "cliopatria-v0.2.0-1444",
        "source_intervals": [
          [
            1440,
            1449
          ],
          [
            1440,
            1462
          ]
        ],
        "source_native_crs": "EPSG:4326",
        "start_date": "1444-11-11"
      },
      "type": "Feature"
    },
    {
      "geometry": {
        "coordinates": [
          [
            [
              71.35236358642578,
              44.32010269165039
            ],
            [
              70.29608154296875,
              43.146724700927734
            ]
          ],
          [
            [
              70.29608154296875,
              43.146724700927734
            ],
            [
              70.2072982788086,
              42.88639831542969
            ]
          ],
          [
            [
              70.2072982788086,
              42.88639831542969
            ],
            [
              70.32351684570312,
              42.75628662109375
            ]
          ],
          [
            [
              70.32351684570312,
              42.75628662109375
            ],
            [
              70.1123046875,
              42.36617660522461
            ]
          ],
          [
            [
              70.1123046875,
              42.36617660522461
            ],
            [
              70.19226837158203,
              42.36617660522461
            ]
          ],
          [
            [
              70.19226837158203,
              42.36617660522461
            ],
            [
              70.1857681274414,
              42.10627746582031
            ]
          ],
          [
            [
              70.1857681274414,
              42.10627746582031
            ],
            [
              70.36084747314453,
              41.911441802978516
            ]
          ],
          [
            [
              70.36084747314453,
              41.911441802978516
            ],
            [
              71.03555297851562,
              41.781593322753906
            ]
          ],
          [
            [
              71.03555297851562,
              41.781593322753906
            ],
            [
              71.05084991455078,
              41.586883544921875
            ]
          ],
          [
            [
              71.05084991455078,
              41.586883544921875
            ],
            [
              71.64479064941406,
              41.45711898803711
            ]
          ],
          [
            [
              71.70289611816406,
              41.39224624633789
            ],
            [
              71.78243255615234,
              41.39224624633789
            ]
          ],
          [
            [
              71.86197662353516,
              41.39224624633789
            ],
            [
              72.10060119628906,
              41.39224624633789
            ]
          ],
          [
            [
              72.10060119628906,
              41.39224624633789
            ],
            [
              72.92491149902344,
              41.00318908691406
            ]
          ],
          [
            [
              72.92491149902344,
              41.00318908691406
            ],
            [
              72.94004821777344,
              40.80876541137695
            ]
          ],
          [
            [
              72.94004821777344,
              40.80876541137695
            ],
            [
              73.37303161621094,
              40.6791877746582
            ]
          ],
          [
            [
              73.37303161621094,
              40.6791877746582
            ],
            [
              73.95331573486328,
              40.031734466552734
            ]
          ],
          [
            [
              73.95331573486328,
              40.031734466552734
            ],
            [
              73.88824462890625,
              39.57893371582031
            ]
          ],
          [
            [
              73.88824462890625,
              39.57893371582031
            ],
            [
              73.7104263305664,
              39.51427459716797
            ]
          ],
          [
            [
              73.7104263305664,
              39.51427459716797
            ],
            [
              73.61043548583984,
              39.19107437133789
            ]
          ],
          [
            [
              73.61043548583984,
              39.19107437133789
            ],
            [
              73.6890869140625,
              39.19107437133789
            ]
          ],
          [
            [
              73.6890869140625,
              39.19107437133789
            ],
            [
              73.64955139160156,
              39.06184005737305
            ]
          ],
          [
            [
              73.64955139160156,
              39.06184005737305
            ],
            [
              73.78703308105469,
              38.997230529785156
            ]
          ],
          [
            [
              73.78703308105469,
              38.997230529785156
            ],
            [
              73.72833251953125,
              38.80344009399414
            ]
          ],
          [
            [
              73.72833251953125,
              38.80344009399414
            ],
            [
              73.80683135986328,
              38.80344009399414
            ]
          ],
          [
            [
              73.80683135986328,
              38.80344009399414
            ],
            [
              73.67025756835938,
              38.60969924926758
            ]
          ],
          [
            [
              73.67025756835938,
              38.60969924926758
            ],
            [
              73.74868774414062,
              38.60969924926758
            ]
          ],
          [
            [
              73.74868774414062,
              38.60969924926758
            ],
            [
              73.61882019042969,
              37.89975357055664
            ]
          ],
          [
            [
              73.61882019042969,
              37.89975357055664
            ],
            [
              73.69699096679688,
              37.89975357055664
            ]
          ],
          [
            [
              73.69699096679688,
              37.89975357055664
            ],
            [
              73.62308502197266,
              37.641746520996094
            ]
          ],
          [
            [
              73.62308502197266,
              37.641746520996094
            ],
            [
              73.70115661621094,
              37.641746520996094
            ]
          ],
          [
            [
              73.70115661621094,
              37.641746520996094
            ],
            [
              73.64630889892578,
              37.44829177856445
            ]
          ],
          [
            [
              73.64630889892578,
              37.44829177856445
            ],
            [
              73.78411865234375,
              37.38381576538086
            ]
          ],
          [
            [
              73.78411865234375,
              37.38381576538086
            ],
            [
              73.69396209716797,
              37.06150817871094
            ]
          ],
          [
            [
              73.69396209716797,
              37.06150817871094
            ],
            [
              73.79618072509766,
              36.8681755065918
            ]
          ]
        ],
        "type": "MultiLineString"
      },
      "properties": {
        "derivation": "exact shared polygon-boundary intersection; no candidate or modern-control geometry used",
        "feature_id": "replacement-cliopatria-143-chagatai-khanate-timurid-empire",
        "left_source_polity": "Chagatai Khanate",
        "native_resolution_degrees": 0.07,
        "proposed_error_budget_km": 20.0,
        "region_id": "143",
        "review_status": "pending_independent_review",
        "right_source_polity": "Timurid Empire",
        "source_id": "cliopatria-v0.2.0-1444",
        "source_intervals": [
          [
            1440,
            1449
          ],
          [
            1440,
            1449
          ]
        ],
        "source_native_crs": "EPSG:4326",
        "start_date": "1444-11-11"
      },
      "type": "Feature"
    },
    {
      "geometry": {
        "coordinates": [
          [
            [
              42.21000289916992,
              17.514753341674805
            ],
            [
              42.663536071777344,
              17.707616806030273
            ]
          ],
          [
            [
              42.663536071777344,
              17.707616806030273
            ],
            [
              43.20596694946289,
              18.157629013061523
            ]
          ],
          [
            [
              43.20596694946289,
              18.157629013061523
            ],
            [
              43.50514221191406,
              18.2219181060791
            ]
          ],
          [
            [
              43.50514221191406,
              18.2219181060791
            ],
            [
              44.35977554321289,
              18.929079055786133
            ]
          ],
          [
            [
              44.35977554321289,
              18.929079055786133
            ],
            [
              44.52690505981445,
              19.25051498413086
            ]
          ]
        ],
        "type": "MultiLineString"
      },
      "properties": {
        "derivation": "exact shared polygon-boundary intersection; no candidate or modern-control geometry used",
        "feature_id": "replacement-cliopatria-145-rasulid-dynasty-mamluk-sultanate",
        "left_source_polity": "Rasulid Dynasty",
        "native_resolution_degrees": 0.07,
        "proposed_error_budget_km": 20.0,
        "region_id": "145",
        "review_status": "pending_independent_review",
        "right_source_polity": "Mamluk Sultanate",
        "source_id": "cliopatria-v0.2.0-1444",
        "source_intervals": [
          [
            1236,
            1452
          ],
          [
            1415,
            1467
          ]
        ],
        "source_native_crs": "EPSG:4326",
        "start_date": "1444-11-11"
      },
      "type": "Feature"
    }
  ],
  "type": "FeatureCollection"
}
