{
  "features": [
    {
      "geometry": {
        "coordinates": [
          [
            42.97711466948048,
            37.639883015180885
          ],
          [
            42.23866844240897,
            37.46371825217525
          ]
        ],
        "type": "LineString"
      },
      "properties": {
        "classification": "hard_constraint",
        "confidence": "high",
        "date_precision": "day",
        "derived_geometry_artifact_id": "derived-region-145-ottoman-qara-qoyunlu-frontier",
        "error_budget_km": 1.0,
        "feature_id": "region-145-ottoman-qara-qoyunlu-frontier",
        "geographic_scope": "145",
        "geometry_revision": "1444-r2",
        "georeferencing": {
          "control_points": [
            {
              "id": "region-145-ottoman-qara-0"
            },
            {
              "id": "region-145-ottoman-qara-1"
            },
            {
              "id": "region-145-ottoman-qara-2"
            }
          ],
          "crs": "EPSG:4326",
          "digitizer": "region-145-packet-generator",
          "residual_error_km": 0.0,
          "reviewer": "Codex regional geometry review",
          "source_feature_reference": "packet#region-145-ottoman-qara-qoyunlu-frontier",
          "transform_method": "fabric-shared-boundary-extraction-wgs84"
        },
        "license_lineage": [
          "derived from accepted global-h3-v1-r2 fabric"
        ],
        "semantics": "Checked 1444 frontier segment between the Ottoman and Qara Qoyunlu political sheets.",
        "side_polity_ids": {
          "left": "scenario-tur",
          "right": "scenario-qqa"
        },
        "source_ids": [
          "cambridge-anatolia-1300-1451",
          "cambridge-western-asia-persian-gulf",
          "shepherd-historical-atlas"
        ],
        "start_date_programs": [
          "1444-11-11"
        ],
        "uncertainty_notes": "Shared fabric edge retained only for the declared regional assertion.",
        "valid_from": "1400",
        "valid_to": "1451"
      },
      "type": "Feature"
    }
  ],
  "type": "FeatureCollection"
}
