{
  "features": [
    {
      "geometry": {
        "coordinates": [
          [
            -7.47183382378607,
            42.146900290559756
          ],
          [
            -6.657366351201526,
            41.94526012078685
          ]
        ],
        "type": "LineString"
      },
      "properties": {
        "classification": "hard_constraint",
        "confidence": "high",
        "date_precision": "year",
        "derived_geometry_artifact_id": "derived-region-039-portugal-castile-frontier",
        "error_budget_km": 1.0,
        "feature_id": "region-039-portugal-castile-frontier",
        "geographic_scope": "039",
        "geometry_revision": "1444-r2",
        "georeferencing": {
          "control_points": [
            {
              "id": "region-039-portugal-castile-0"
            },
            {
              "id": "region-039-portugal-castile-1"
            },
            {
              "id": "region-039-portugal-castile-2"
            }
          ],
          "crs": "EPSG:4326",
          "digitizer": "region-039-packet-generator",
          "residual_error_km": 0.0,
          "reviewer": "Codex regional geometry review",
          "source_feature_reference": "packet#region-039-portugal-castile-frontier",
          "transform_method": "fabric-shared-boundary-extraction-wgs84"
        },
        "license_lineage": [
          "derived from accepted global-h3-v1-r2 fabric"
        ],
        "semantics": "Checked 1444 frontier segment between Portugal and Castile.",
        "side_polity_ids": {
          "left": "scenario-por",
          "right": "scenario-cas"
        },
        "source_ids": [
          "cambridge-iberian-polities",
          "shepherd-historical-atlas"
        ],
        "start_date_programs": [
          "1444-11-11"
        ],
        "uncertainty_notes": "Shared fabric edge retained only for the declared regional assertion.",
        "valid_from": "1400",
        "valid_to": "1500"
      },
      "type": "Feature"
    }
  ],
  "type": "FeatureCollection"
}
