{
  "features": [
    {
      "geometry": {
        "coordinates": [
          [
            -1.8947656747559878,
            34.12726029832116
          ],
          [
            -1.2103936347524693,
            33.920213681836074
          ]
        ],
        "type": "LineString"
      },
      "properties": {
        "classification": "hard_constraint",
        "confidence": "high",
        "date_precision": "day",
        "derived_geometry_artifact_id": "derived-region-015-marinid-zayyanid-frontier",
        "error_budget_km": 1.0,
        "feature_id": "region-015-marinid-zayyanid-frontier",
        "geographic_scope": "015",
        "geometry_revision": "1444-r2",
        "georeferencing": {
          "control_points": [
            {
              "id": "region-015-frontier-0"
            },
            {
              "id": "region-015-frontier-1"
            },
            {
              "id": "region-015-frontier-2"
            }
          ],
          "crs": "EPSG:4326",
          "digitizer": "region-015-packet-generator",
          "residual_error_km": 0.0,
          "reviewer": "Codex regional geometry review",
          "source_feature_reference": "packet#region-015-marinid-zayyanid-frontier",
          "transform_method": "fabric-shared-boundary-extraction-wgs84"
        },
        "license_lineage": [
          "derived from accepted global-h3-v1-r2 fabric"
        ],
        "semantics": "Checked 1444 frontier segment between Marinid and Zayyanid political sheets.",
        "side_polity_ids": {
          "left": "scenario-mor",
          "right": "scenario-tlc"
        },
        "source_ids": [
          "cambridge-maghrib-islamic-period",
          "cambridge-north-africa-dynasties",
          "shepherd-historical-atlas"
        ],
        "start_date_programs": [
          "1444-11-11"
        ],
        "uncertainty_notes": "Shared fabric edge retained only for the declared regional assertion.",
        "valid_from": "1400",
        "valid_to": "1465"
      },
      "type": "Feature"
    }
  ],
  "type": "FeatureCollection"
}
