{
  "features": [
    {
      "geometry": {
        "coordinates": [
          [
            [
              129.00009199300007,
              -31.689222914999903
            ],
            [
              129.00011600215169,
              -31.336743258494607
            ]
          ],
          [
            [
              129.00011600215169,
              -31.336743258494607
            ],
            [
              129.00011600215169,
              -30.980951022671547
            ]
          ],
          [
            [
              129.00011600215169,
              -30.980951022671547
            ],
            [
              129.00011600215169,
              -30.625158786848544
            ]
          ],
          [
            [
              129.00011600215169,
              -30.625158786848544
            ],
            [
              129.00011600215169,
              -30.2693148741821
            ]
          ],
          [
            [
              129.00011600215169,
              -30.2693148741821
            ],
            [
              129.00011600215169,
              -29.913522637459778
            ]
          ],
          [
            [
              129.00011600215169,
              -29.913522637459778
            ],
            [
              129.00011600215169,
              -29.55778207758084
            ]
          ],
          [
            [
              129.00011600215169,
              -29.55778207758084
            ],
            [
              129.00011600215169,
              -29.2020415177019
            ]
          ],
          [
            [
              129.00011600215169,
              -29.2020415177019
            ],
            [
              129.00011600215169,
              -28.84624928187884
            ]
          ],
          [
            [
              129.00011600215169,
              -28.84624928187884
            ],
            [
              129.00011600215169,
              -28.490457045156518
            ]
          ],
          [
            [
              129.00011600215169,
              -28.490457045156518
            ],
            [
              129.00011600215169,
              -28.134613131590754
            ]
          ],
          [
            [
              129.00011600215169,
              -28.134613131590754
            ],
            [
              129.00011600215169,
              -27.77882089576775
            ]
          ],
          [
            [
              129.00011600215169,
              -27.77882089576775
            ],
            [
              129.00011600215169,
              -27.423080335888812
            ]
          ],
          [
            [
              129.00011600215169,
              -27.423080335888812
            ],
            [
              129.00011600215169,
              -27.067339776009874
            ]
          ],
          [
            [
              129.00011600215169,
              -27.067339776009874
            ],
            [
              129.00011600215169,
              -26.711547540186814
            ]
          ],
          [
            [
              129.00011600215169,
              -26.711547540186814
            ],
            [
              129.00011600215169,
              -26.35570362662105
            ]
          ],
          [
            [
              129.00011600215169,
              -26.35570362662105
            ],
            [
              129.00011600215169,
              -25.999911390798047
            ]
          ]
        ],
        "type": "MultiLineString"
      },
      "properties": {
        "classification": "soft_evidence",
        "confidence": "high",
        "date_precision": "year",
        "feature_id": "forbidden-modern-western-australia-south-australia-seam",
        "geographic_scope": "053",
        "geometry_revision": "natural-earth-5.1.1",
        "license_lineage": [
          "Natural Earth public domain"
        ],
        "reference_unit_ids": [
          "AU-WA",
          "AU-SA"
        ],
        "semantics": "Modern inland Admin-1 seam between AU-WA and AU-SA; negative control only.",
        "side_polity_ids": null,
        "source_ids": [
          "natural-earth-admin1-5.1.1-region-053"
        ],
        "start_date_programs": [
          "1444-11-11"
        ],
        "uncertainty_notes": "Shared polygon boundary excludes coastlines by construction.",
        "valid_from": "2022",
        "valid_to": null
      },
      "type": "Feature"
    }
  ],
  "type": "FeatureCollection"
}
