{
  "features": [
    {
      "geometry": {
        "coordinates": [
          [
            103.12517555393038,
            14.061667414292229
          ],
          [
            102.46050392355397,
            14.256636079392454
          ]
        ],
        "type": "LineString"
      },
      "properties": {
        "classification": "hard_constraint",
        "confidence": "high",
        "date_precision": "day",
        "derived_geometry_artifact_id": "derived-region-035-ayutthaya-cambodia-frontier",
        "error_budget_km": 1.0,
        "feature_id": "region-035-ayutthaya-cambodia-frontier",
        "geographic_scope": "035",
        "geometry_revision": "1444-r2",
        "georeferencing": {
          "control_points": [
            {
              "id": "region-035-frontier-0"
            },
            {
              "id": "region-035-frontier-1"
            },
            {
              "id": "region-035-frontier-2"
            }
          ],
          "crs": "EPSG:4326",
          "digitizer": "region-035-packet-generator",
          "residual_error_km": 0.0,
          "reviewer": "Codex regional geometry review",
          "source_feature_reference": "packet#region-035-ayutthaya-cambodia-frontier",
          "transform_method": "fabric-shared-boundary-extraction-wgs84"
        },
        "license_lineage": [
          "derived from accepted global-h3-v1-r2 fabric"
        ],
        "semantics": "Checked 1444 frontier segment between Ayutthaya and the post-Angkor Cambodian sheet.",
        "side_polity_ids": {
          "left": "scenario-ayu",
          "right": "scenario-khmer-successor"
        },
        "source_ids": [
          "regional-survey-035",
          "shepherd-historical-atlas"
        ],
        "start_date_programs": [
          "1444-11-11"
        ],
        "uncertainty_notes": "Shared fabric edge retained only for the declared regional assertion.",
        "valid_from": "1400",
        "valid_to": "1500"
      },
      "type": "Feature"
    }
  ],
  "type": "FeatureCollection"
}
