{
  "features": [
    {
      "geometry": {
        "coordinates": [
          [
            78.32632143783592,
            19.74054134003327
          ],
          [
            77.89282385581691,
            19.248933470521393
          ]
        ],
        "type": "LineString"
      },
      "properties": {
        "classification": "hard_constraint",
        "confidence": "high",
        "date_precision": "day",
        "derived_geometry_artifact_id": "derived-region-034-bahmani-vijayanagara-frontier",
        "error_budget_km": 1.0,
        "feature_id": "region-034-bahmani-vijayanagara-frontier",
        "geographic_scope": "034",
        "geometry_revision": "1444-r2",
        "georeferencing": {
          "control_points": [
            {
              "id": "region-034-frontier-0"
            },
            {
              "id": "region-034-frontier-1"
            },
            {
              "id": "region-034-frontier-2"
            }
          ],
          "crs": "EPSG:4326",
          "digitizer": "region-034-packet-generator",
          "residual_error_km": 0.0,
          "reviewer": "Codex regional geometry review",
          "source_feature_reference": "packet#region-034-bahmani-vijayanagara-frontier",
          "transform_method": "fabric-shared-boundary-extraction-wgs84"
        },
        "license_lineage": [
          "derived from accepted global-h3-v1-r2 fabric"
        ],
        "semantics": "Checked 1444 frontier segment between Bahmani and Vijayanagara political sheets.",
        "side_polity_ids": {
          "left": "scenario-bah",
          "right": "scenario-vij"
        },
        "source_ids": [
          "iranica-bahmani",
          "regional-survey-034",
          "shepherd-historical-atlas"
        ],
        "start_date_programs": [
          "1444-11-11"
        ],
        "uncertainty_notes": "Shared fabric edge retained only for the declared regional assertion.",
        "valid_from": "1400",
        "valid_to": "1500"
      },
      "type": "Feature"
    }
  ],
  "type": "FeatureCollection"
}
